{"type": "FeatureCollection", "features": [{"type": "Feature", "properties": {"norad_id": 2807, "name": "OPS 7218 (TRANSIT 16)", "group": "nnss", "lat": -21.659512277010453, "lon": -5.778831272544652, "alt_km": 1090.1398720027537, "timestamp": "2025-12-02T15:49:07.457796+00:00", "meta": {"OBJECT_NAME": "OPS 7218 (TRANSIT 16)", "OBJECT_ID": "1967-048A", "EPOCH": "2025-12-02T03:48:58.538304", "MEAN_MOTION": 13.50719083, "ECCENTRICITY": 0.00213904, "INCLINATION": 89.6737, "RA_OF_ASC_NODE": 354.3673, "ARG_OF_PERICENTER": 142.6225, "MEAN_ANOMALY": 285.552, "EPHEMERIS_TYPE": 0, "CLASSIFICATION_TYPE": "U", "NORAD_CAT_ID": 2807, "ELEMENT_SET_NO": 999, "REV_AT_EPOCH": 88133, "BSTAR": 0.00020274849, "MEAN_MOTION_DOT": 1.41e-06, "MEAN_MOTION_DDOT": 0}, "tle": {"line1": "1 02807U 67048A   25336.15901086  .00000141  00000+0  20275-3 0  9995", "line2": "2 02807  89.6737 354.3673 0021390 142.6225 285.5520 13.50719083881334"}}, "geometry": {"type": "Point", "coordinates": [-5.778831272544652, -21.659512277010453]}}, {"type": "Feature", "properties": {"norad_id": 2965, "name": "OPS 4947 (TRANSIT 17)", "group": "nnss", "lat": -55.70532412969577, "lon": 24.104799376929407, "alt_km": 1040.3883981314457, "timestamp": "2025-12-02T15:49:07.457818+00:00", "meta": {"OBJECT_NAME": "OPS 4947 (TRANSIT 17)", "OBJECT_ID": "1967-092A", "EPOCH": "2025-12-02T03:56:14.949024", "MEAN_MOTION": 13.53449539, "ECCENTRICITY": 0.00457414, "INCLINATION": 89.2508, "RA_OF_ASC_NODE": 25.2417, "ARG_OF_PERICENTER": 266.3193, "MEAN_ANOMALY": 147.0431, "EPHEMERIS_TYPE": 0, "CLASSIFICATION_TYPE": "U", "NORAD_CAT_ID": 2965, "ELEMENT_SET_NO": 999, "REV_AT_EPOCH": 86954, "BSTAR": 0.00020524053, "MEAN_MOTION_DOT": 1.5e-06, "MEAN_MOTION_DDOT": 0}, "tle": {"line1": "1 02965U 67092A   25336.16406191  .00000150  00000+0  20524-3 0  9994", "line2": "2 02965  89.2508  25.2417 0045741 266.3193 147.0431 13.53449539869546"}}, "geometry": {"type": "Point", "coordinates": [24.104799376929407, -55.70532412969577]}}, {"type": "Feature", "properties": {"norad_id": 3133, "name": "OPS 7034 (TRANSIT 18)", "group": "nnss", "lat": 18.74893409176434, "lon": 93.62000888934631, "alt_km": 1023.4763799455122, "timestamp": "2025-12-02T15:49:07.457833+00:00", "meta": {"OBJECT_NAME": "OPS 7034 (TRANSIT 18)", "OBJECT_ID": "1968-012A", "EPOCH": "2025-12-02T06:54:01.304640", "MEAN_MOTION": 13.51562096, "ECCENTRICITY": 0.00728822, "INCLINATION": 90.0268, "RA_OF_ASC_NODE": 273.6099, "ARG_OF_PERICENTER": 199.5698, "MEAN_ANOMALY": 315.0961, "EPHEMERIS_TYPE": 0, "CLASSIFICATION_TYPE": "U", "NORAD_CAT_ID": 3133, "ELEMENT_SET_NO": 999, "REV_AT_EPOCH": 56777, "BSTAR": 0.00015256196, "MEAN_MOTION_DOT": 1.1e-06, "MEAN_MOTION_DDOT": 0}, "tle": {"line1": "1 03133U 68012A   25336.28751510  .00000110  00000+0  15256-3 0  9998", "line2": "2 03133  90.0268 273.6099 0072882 199.5698 315.0961 13.51562096567772"}}, "geometry": {"type": "Point", "coordinates": [93.62000888934631, 18.74893409176434]}}, {"type": "Feature", "properties": {"norad_id": 4507, "name": "NNSS 19 (TRANSIT 19)", "group": "nnss", "lat": 37.676290567940256, "lon": 54.53095330964767, "alt_km": 1192.2637153295282, "timestamp": "2025-12-02T15:49:07.457845+00:00", "meta": {"OBJECT_NAME": "NNSS 19 (TRANSIT 19)", "OBJECT_ID": "1970-067A", "EPOCH": "2025-12-02T06:13:33.729024", "MEAN_MOTION": 13.51310727, "ECCENTRICITY": 0.01712772, "INCLINATION": 90.0056, "RA_OF_ASC_NODE": 234.5264, "ARG_OF_PERICENTER": 323.954, "MEAN_ANOMALY": 35.0158, "EPHEMERIS_TYPE": 0, "CLASSIFICATION_TYPE": "U", "NORAD_CAT_ID": 4507, "ELEMENT_SET_NO": 999, "REV_AT_EPOCH": 72080, "BSTAR": 0.00025982729, "MEAN_MOTION_DOT": 1.93e-06, "MEAN_MOTION_DDOT": 0}, "tle": {"line1": "1 04507U 70067A   25336.25941816  .00000193  00000+0  25983-3 0  9993", "line2": "2 04507  90.0056 234.5264 0171277 323.9540  35.0158 13.51310727720804"}}, "geometry": {"type": "Point", "coordinates": [54.53095330964767, 37.676290567940256]}}, {"type": "Feature", "properties": {"norad_id": 6909, "name": "NNSS 20 (TRANSIT 20)", "group": "nnss", "lat": -27.70273402391633, "lon": 75.28117942027181, "alt_km": 1017.4292990454323, "timestamp": "2025-12-02T15:49:07.457856+00:00", "meta": {"OBJECT_NAME": "NNSS 20 (TRANSIT 20)", "OBJECT_ID": "1973-081A", "EPOCH": "2025-12-02T06:04:15.948768", "MEAN_MOTION": 13.71427065, "ECCENTRICITY": 0.01564335, "INCLINATION": 89.8555, "RA_OF_ASC_NODE": 255.2114, "ARG_OF_PERICENTER": 109.3738, "MEAN_ANOMALY": 252.4411, "EPHEMERIS_TYPE": 0, "CLASSIFICATION_TYPE": "U", "NORAD_CAT_ID": 6909, "ELEMENT_SET_NO": 999, "REV_AT_EPOCH": 80217, "BSTAR": 0.00026654275, "MEAN_MOTION_DOT": 2.73e-06, "MEAN_MOTION_DDOT": 0}, "tle": {"line1": "1 06909U 73081A   25336.25296237  .00000273  00000+0  26654-3 0  9995", "line2": "2 06909  89.8555 255.2114 0156433 109.3738 252.4411 13.71427065802172"}}, "geometry": {"type": "Point", "coordinates": [75.28117942027181, -27.70273402391633]}}, {"type": "Feature", "properties": {"norad_id": 10457, "name": "TRANSAT", "group": "nnss", "lat": -53.23635984413833, "lon": -100.57498919069108, "alt_km": 1065.4969922835799, "timestamp": "2025-12-02T15:49:07.457867+00:00", "meta": {"OBJECT_NAME": "TRANSAT", "OBJECT_ID": "1977-106A", "EPOCH": "2025-12-02T07:50:32.135712", "MEAN_MOTION": 13.48940991, "ECCENTRICITY": 0.00244663, "INCLINATION": 89.6482, "RA_OF_ASC_NODE": 78.9656, "ARG_OF_PERICENTER": 220.2889, "MEAN_ANOMALY": 199.7965, "EPHEMERIS_TYPE": 0, "CLASSIFICATION_TYPE": "U", "NORAD_CAT_ID": 10457, "ELEMENT_SET_NO": 999, "REV_AT_EPOCH": 36603, "BSTAR": 0.00012738272, "MEAN_MOTION_DOT": 9e-07, "MEAN_MOTION_DDOT": 0}, "tle": {"line1": "1 10457U 77106A   25336.32676083  .00000090  00000+0  12738-3 0  9994", "line2": "2 10457  89.6482  78.9656 0024466 220.2889 199.7965 13.48940991366032"}}, "geometry": {"type": "Point", "coordinates": [-100.57498919069108, -53.23635984413833]}}, {"type": "Feature", "properties": {"norad_id": 12458, "name": "NOVA 1", "group": "nnss", "lat": -15.479111613833524, "lon": 91.48656474975577, "alt_km": 1186.4440076558412, "timestamp": "2025-12-02T15:49:07.457878+00:00", "meta": {"OBJECT_NAME": "NOVA 1", "OBJECT_ID": "1981-044A", "EPOCH": "2025-12-02T07:07:37.032096", "MEAN_MOTION": 13.23276708, "ECCENTRICITY": 0.00155583, "INCLINATION": 89.8521, "RA_OF_ASC_NODE": 91.5327, "ARG_OF_PERICENTER": 129.7248, "MEAN_ANOMALY": 290.7665, "EPHEMERIS_TYPE": 0, "CLASSIFICATION_TYPE": "U", "NORAD_CAT_ID": 12458, "ELEMENT_SET_NO": 999, "REV_AT_EPOCH": 15048, "BSTAR": 0.00013828379, "MEAN_MOTION_DOT": 6.8e-07, "MEAN_MOTION_DDOT": 0}, "tle": {"line1": "1 12458U 81044A   25336.29695639  .00000068  00000+0  13828-3 0  9993", "line2": "2 12458  89.8521  91.5327 0015558 129.7248 290.7665 13.23276708150481"}}, "geometry": {"type": "Point", "coordinates": [91.48656474975577, -15.479111613833524]}}, {"type": "Feature", "properties": {"norad_id": 15362, "name": "NOVA 3", "group": "nnss", "lat": -45.73221622545789, "lon": -99.70977637996597, "alt_km": 1196.4891370685464, "timestamp": "2025-12-02T15:49:07.457888+00:00", "meta": {"OBJECT_NAME": "NOVA 3", "OBJECT_ID": "1984-110A", "EPOCH": "2025-12-02T07:44:02.757696", "MEAN_MOTION": 13.23042596, "ECCENTRICITY": 0.00313398, "INCLINATION": 90.1225, "RA_OF_ASC_NODE": 80.412, "ARG_OF_PERICENTER": 1.1981, "MEAN_ANOMALY": 61.1862, "EPHEMERIS_TYPE": 0, "CLASSIFICATION_TYPE": "U", "NORAD_CAT_ID": 15362, "ELEMENT_SET_NO": 999, "REV_AT_EPOCH": 98561, "BSTAR": 0.00012439466, "MEAN_MOTION_DOT": 6.1e-07, "MEAN_MOTION_DDOT": 0}, "tle": {"line1": "1 15362U 84110A   25336.32225414  .00000061  00000+0  12439-3 0  9991", "line2": "2 15362  90.1225  80.4120 0031339   1.1981  61.1862 13.23042596985610"}}, "geometry": {"type": "Point", "coordinates": [-99.70977637996597, -45.73221622545789]}}, {"type": "Feature", "properties": {"norad_id": 15935, "name": "OSCAR 30", "group": "nnss", "lat": -16.391233147498188, "lon": -80.36609387194227, "alt_km": 1113.8824425029788, "timestamp": "2025-12-02T15:49:07.457899+00:00", "meta": {"OBJECT_NAME": "OSCAR 30", "OBJECT_ID": "1985-066A", "EPOCH": "2025-12-02T07:55:52.036896", "MEAN_MOTION": 13.36075583, "ECCENTRICITY": 0.01693172, "INCLINATION": 90.1645, "RA_OF_ASC_NODE": 99.677, "ARG_OF_PERICENTER": 112.9597, "MEAN_ANOMALY": 301.5507, "EPHEMERIS_TYPE": 0, "CLASSIFICATION_TYPE": "U", "NORAD_CAT_ID": 15935, "ELEMENT_SET_NO": 999, "REV_AT_EPOCH": 96314, "BSTAR": 0.00020281915, "MEAN_MOTION_DOT": 1.23e-06, "MEAN_MOTION_DDOT": 0}, "tle": {"line1": "1 15935U 85066A   25336.33046339  .00000123  00000+0  20282-3 0  9990", "line2": "2 15935  90.1645  99.6770 0169317 112.9597 301.5507 13.36075583963144"}}, "geometry": {"type": "Point", "coordinates": [-80.36609387194227, -16.391233147498188]}}, {"type": "Feature", "properties": {"norad_id": 15936, "name": "OSCAR 24", "group": "nnss", "lat": -84.39048232930055, "lon": 93.94582175167014, "alt_km": 1249.4031985103302, "timestamp": "2025-12-02T15:49:07.457909+00:00", "meta": {"OBJECT_NAME": "OSCAR 24", "OBJECT_ID": "1985-066B", "EPOCH": "2025-12-02T07:31:49.441152", "MEAN_MOTION": 13.35933279, "ECCENTRICITY": 0.01703389, "INCLINATION": 90.1785, "RA_OF_ASC_NODE": 92.121, "ARG_OF_PERICENTER": 119.4463, "MEAN_ANOMALY": 295.4801, "EPHEMERIS_TYPE": 0, "CLASSIFICATION_TYPE": "U", "NORAD_CAT_ID": 15936, "ELEMENT_SET_NO": 999, "REV_AT_EPOCH": 96504, "BSTAR": 0.00013257039, "MEAN_MOTION_DOT": 8.4e-07, "MEAN_MOTION_DDOT": 0}, "tle": {"line1": "1 15936U 85066B   25336.31376668  .00000084  00000+0  13257-3 0  9990", "line2": "2 15936  90.1785  92.1210 0170338 119.4463 295.4801 13.35933279965049"}}, "geometry": {"type": "Point", "coordinates": [93.94582175167014, -84.39048232930055]}}]}